ONEWEB-0198             
1 48216U 21031G   23271.65092826  .00000076  00000+0  17090-3 0  9993
2 48216  87.8971 127.3107 0001743  62.7256 297.4051 13.14505498118094
ONEWEB-0189             
1 48217U 21031H   23271.66360467  .00000284  00000+0  73194-3 0  9992
2 48217  87.8968 127.2865 0001631  59.2931 300.8360 13.14501224117834
ONEWEB-0196             
1 48218U 21031J   23272.02303645 -.00000107  00000+0 -32375-3 0  9991
2 48218  87.8971 127.2098 0001746  74.5371 285.5952 13.14505264117870
ONEWEB-0183             
1 48219U 21031K   23271.69109119  .00000140  00000+0  34347-3 0  9990
2 48219  87.8974 127.2958 0001546  79.5983 280.5321 13.14502508117931
ONEWEB-0185             
1 48220U 21031L   23272.02416112 -.00001502  00000+0 -40870-2 0  9996
2 48220  87.8992 127.2031 0001205  87.9739 272.1529 13.14482160117904
ONEWEB-0187             
1 48221U 21031M   23271.61815684 -.00000030  00000+0 -11523-3 0  9997
2 48221  87.8974 127.3141 0001576  76.4995 283.6310 13.14501645117866
ONEWEB-0192             
1 48222U 21031N   23271.66783201  .00000231  00000+0  58883-3 0  9993
2 48222  87.9014 127.2655 0001727  74.5970 285.5350 13.14501212117788
ONEWEB-0219             
1 48223U 21031P   23271.64880535  .00000072  00000+0  15997-3 0  9992
2 48223  87.8969 127.2831 0001488  75.4237 284.7058 13.14504228117981
